BATSU-CS1 (IRAZU)       
1 43468U 98067NR  20055.33408860  .00581191  17988-3  68943-3 0  9993
2 43468  51.6261 113.7313 0007681  22.7015 337.4337 16.07831757202566
CUBERRT                 
1 43546U 98067NU  20054.47379248  .00008891  00000-0  78274-4 0  9995
2 43546  51.6360 149.6693 0003871  10.8890 349.2190 15.69643174 92160
TEMPEST-D               
1 43547U 98067NV  20054.87214103  .00005739  00000-0  73646-4 0  9994
2 43547  51.6372 169.6521 0005075 348.0422  12.0450 15.60790460 91616
RAINCUBE                
1 43548U 98067NW  20054.86032044  .00020867  00000-0  18413-3 0  9995
2 43548  51.6346 155.9808 0004965   4.3146 355.7892 15.68652085 92241
HALOSAT                 
1 43549U 98067NX  20054.75791809  .00012638  00000-0  11536-3 0  9991
2 43549  51.6365 156.8434 0004660   4.9841 355.1201 15.68276153 91782
ENDUROSAT ONE           
1 43551U 98067NZ  20054.83602904  .00027667  00000-0  20774-3 0  9992
2 43551  51.6339 149.8133 0005177  14.5284 345.5863 15.72358181 92297
EQUISAT                 
1 43552U 98067PA  20054.70459422  .00020923  00000-0  18353-3 0  9992
2 43552  51.6369 155.7789 0005489  11.7441 348.3683 15.68792915 92163
AEROCUBE 12A            
1 43556U 18046C   20054.84258850  .00000833  00000-0  41225-4 0  9995
2 43556  51.6424 296.1056 0007640 243.3572 116.6626 15.29428809 89833
AEROCUBE 12B            
1 43557U 18046D   20054.88412454  .00001513  00000-0  65089-4 0  9992
2 43557  51.6423 296.3748 0007774 242.7453 117.2736 15.29200379 89785
UITMSAT-1               
1 43589U 98067PD  20055.44702663  .00024972  00000-0  20640-3 0  9992
2 43589  51.6337 151.6018 0004993  21.3533 338.7671 15.70123362 88023
MAYA-1                  
1 43590U 98067PE  20054.54907190  .00023592  00000-0  19566-3 0  9998
2 43590  51.6342 156.1141 0005039  19.0111 341.1074 15.70077890 87811
BHUTAN-1                
1 43591U 98067PF  20054.65677131  .00023351  00000-0  19303-3 0  9992
2 43591  51.6347 155.3832 0005194  18.9895 341.1295 15.70162301 87833
SIRIUSSAT-1             
1 43595U 98067PG  20054.81626800  .00023100  00000-0  20400-3 0  9993
2 43595  51.6342 157.9101 0003265 347.3196  12.7718 15.68567257 86992
SIRIUSSAT-2             
1 43596U 98067PH  20055.12549423  .00023136  00000-0  20487-3 0  9998
2 43596  51.6350 157.0386 0003680 345.7888  14.3004 15.68498363 87032
TANUSHA-3               
1 43597U 98067PJ  20055.44823497  .00038397  00000-0  27329-3 0  9997
2 43597  51.6317 148.5470 0003710   0.8995 359.2009 15.73450083 87171
SURFSAT                 
1 43614U 18070B   20055.41472855  .00002598  00000-0  67986-4 0  9996
2 43614  93.0293 107.4450 0017874  63.4627 296.8456 15.38641722 80942
CP7 (DAVE)              
1 43615U 18070C   20054.91613225  .00002532  00000-0  66512-4 0  9991
2 43615  93.0297 107.2348 0018062  64.4823 295.8296 15.38522254 80860
ELFIN-B                 
1 43616U 18070D   20054.91750291  .00003752  00000-0  94958-4 0  9997
2 43616  93.0258 107.1497 0018612  66.8403 293.4810 15.39621466 80898
ELFIN-A                 
1 43617U 18070E   20054.89774920  .00003858  00000-0  97262-4 0  9998
2 43617  93.0313 107.5578 0017864  64.1223 296.1871 15.39755833 80897
CUBEBEL-1 (BSUSAT-1)    
1 43666U 18083E   20055.55080948  .00001437  00000-0  73783-4 0  9993
2 43666  97.5010  83.0814 0016027  41.7147 109.6929 15.18036311 73334
DEBRISSAT-2             
1 43680U 98067PR  20055.44230196  .00063510  00000-0  34995-3 0  9990
2 43680  51.6345 144.0334 0003890   7.9640 352.1423 15.79062482 95965
CICERO 10               
1 43690U 18088A   20055.41421156  .00001113  00000-0  49669-4 0  9997
2 43690  85.0412 153.4553 0015342  17.1827 342.9929 15.20050026 71413
IRVINE01                
1 43693U 18088D   20054.67886664  .00002581  00000-0  10971-3 0  9999
2 43693  85.0386 152.9595 0017436   1.2099 358.9182 15.22375750 71387
PROXIMA I               
1 43694U 18088E   20055.47033506  .00000960  00000-0  40376-4 0  9990
2 43694  85.0355 152.2362 0018596 349.4578  10.6271 15.21780711 71507
PROXIMA II              
1 43696U 18088G   20055.00846482  .00000973  00000-0  40940-4 0  9997
2 43696  85.0355 152.5438 0018709 351.1171   8.9736 15.21783662 71437
FACSAT-1                
1 43721U 18096C   20055.45631359  .00001642  00000-0  64700-4 0  9993
2 43721  97.4319 129.6119 0018321 160.6366 199.5573 15.26906662 68998
CENTAURI-2              
1 43722U 18096D   20055.19010619  .00002140  00000-0  82390-4 0  9994
2 43722  97.4327 129.5238 0018397 161.7562 198.4341 15.27331176 68952
INNOSAT-2               
1 43738U 18096V   20055.46866328  .00003040  00000-0  10732-3 0  9997
2 43738  97.4338 131.3147 0024191 170.2604 189.9110 15.29750750 69104
SIRION PATHFINDER-2     
1 43759U 18099B   20055.48000434  .00000597  00000-0  59388-4 0  9998
2 43759  97.7173 129.0238 0013905 197.8190 162.2545 14.95230422 66898
CORVUS-BC 4             
1 43767U 18099K   20055.17795719 -.00000233  00000-0 -16220-4 0  9997
2 43767  97.7158 128.2602 0011227 202.1483 157.9254 14.94671413 66836
MOVE-II                 
1 43780U 18099Y   20054.89778418  .00000491  00000-0  49765-4 0  9991
2 43780  97.7179 128.3570 0012864 211.3712 148.6743 14.95288476 66793
SPACEBEE-7              
1 43816U 18099BL  20055.12784635  .00000273  00000-0  29795-4 0  9995
2 43816  97.7187 128.9036 0013235 195.2968 164.7855 14.95594949 66407
SPACEBEE-5              
1 43817U 18099BM  20055.18999679  .00000705  00000-0  67849-4 0  9990
2 43817  97.7228 129.2471 0013215 195.4855 164.5964 14.96077014 66427
SPACEBEE-6              
1 43818U 18099BN  20055.17137794  .00000329  00000-0  34675-4 0  9995
2 43818  97.7204 129.0352 0013089 194.4995 165.5852 14.95752051 66563
SHIELDS 1               
1 43850U 18104B   20054.62103666  .00000042  00000-0  00000+0 0  9990
2 43850  85.0256 251.2428 0016740 126.5595 233.7217 15.21281244 66011
STF-1                   
1 43852U 18104D   20055.27934340  .00000042  00000-0  00000+0 0  9995
2 43852  85.0318 251.2658 0016201 137.5883 222.6716 15.21037446 66093
ZACUBE-2                
1 43907U 18111AH  20055.44218586  .00000548  00000-0  25045-4 0  9992
2 43907  97.2762 318.5766 0021396 181.8740 178.2422 15.24461149 64647
LUME 1                  
1 43908U 18111AJ  20054.87105514  .00001085  00000-0  46348-4 0  9991
2 43908  97.2763 318.1244 0021131 183.6955 176.4130 15.24803654 64569
AOBA VELOX-IV           
1 43940U 19003J   20055.41179723  .00002223  00000-0  92439-4 0  9999
2 43940  97.2447 110.5342 0022311 265.9937 218.4894 15.24596858 61276
CATSAT-2                
1 44029U 98067PV  20054.83792791  .00013672  00000-0  16136-3 0  9995
2 44029  51.6385 175.4649 0004217  10.3028 349.8051 15.61652371 60590
DELPHINI                
1 44030U 98067PW  20054.78549551  .00015702  00000-0  18006-3 0  9999
2 44030  51.6355 175.0498 0004282   6.1796 353.9250 15.62269614 60563
UNITE                   
1 44031U 98067PX  20055.49506100  .00008771  00000-0  11597-3 0  9998
2 44031  51.6376 175.3245 0003272   8.7302 351.3747 15.59200400 60623
TECHEDSAT 8             
1 44032U 98067PY  20055.47517215  .00117139  00000-0  59575-3 0  9993
2 44032  51.6293 154.7973 0005448 358.2040   1.8941 15.80568666 60875
CATSAT-1                
1 44033U 98067PZ  20054.83773966  .00013708  00000-0  16176-3 0  9997
2 44033  51.6387 175.4677 0004139   9.1180 350.9888 15.61654141 60505
RAAVANA-1               
1 44329U 98067QE  20054.73956084  .00008654  00000-0  13047-3 0  9996
2 44329  51.6392 188.3116 0006211 295.7408  64.2942 15.55640047 39133
UGUISU                  
1 44330U 98067QF  20054.81116465  .00008803  00000-0  13287-3 0  9990
2 44330  51.6389 188.0372 0006198 294.3422  65.6922 15.55581720 39121
NEPALISAT-1             
1 44331U 98067QG  20054.79833969  .00009293  00000-0  13941-3 0  9994
2 44331  51.6392 187.9542 0006260 297.2784  62.7569 15.55673112 39139
SPOOQY-1                
1 44332U 98067QH  20055.37478213  .00010082  00000-0  15081-3 0  9992
2 44332  51.6392 185.0509 0005149 302.3476  57.7017 15.55645768 39186
SPACEBEE-9              
1 44370U 19037F   20055.37363859  .00010280  00000-0  24544-3 0  9997
2 44370  45.0062  32.8051 0013213 242.2051 117.7493 15.41713108 36981
SPACEBEE-8              
1 44371U 19037G   20055.37716680  .00018124  00000-0  38998-3 0  9995
2 44371  45.0086  30.3072 0010386 250.0996 109.8774 15.44383343 37002
IOD-1 GEMS              
1 44385U 98067QK  20054.91144123  .00014956  00000-0  21168-3 0  9996
2 44385  51.6401 187.2399 0002710 262.7651  97.3033 15.56727894 36638
MOVE-IIB                
1 44398U 19038N   20055.54035931  .00001036  00000-0  63610-4 0  9991
2 44398  97.5210  18.3421 0025473 156.7596 203.4867 15.12065657 35368
SONATE                  
1 44400U 19038Q   20054.82418247  .00000452  00000-0  30049-4 0  9991
2 44400  97.5250  17.6561 0025832 157.3515 202.8861 15.11837869 35256
LUCKY-7                 
1 44406U 19038W   20054.85884499  .00000570  00000-0  36678-4 0  9991
2 44406  97.5248  17.7568 0025309 156.8782 203.3593 15.12071931 35255
BEESAT 9                
1 44412U 19038AC  20054.86165452  .00000769  00000-0  48174-4 0  9994
2 44412  97.5242  17.7425 0023225 162.2569 197.9478 15.12101322 34951
JAISAT-1                
1 44419U 19038F   20054.58772433  .00000827  00000-0  50928-4 0  9998
2 44419  97.5243  17.6501 0022074 162.4198 197.7802 15.12583017 35230
SWIATOWID               
1 44426U 98067QL  20055.36001478  .00019260  00000-0  26698-3 0  9993
2 44426  51.6427 184.9099 0003222 250.1692 139.7797 15.57079676 36714
KRAKSAT                 
1 44427U 98067QM  20054.82275685  .00007167  00000-0  11473-3 0  9995
2 44427  51.6405 189.6397 0003322 247.3786 112.6853 15.54292173 36648
VCC A                   
1 44428U 98067QN  20054.94653450  .00008796  00000-0  13504-3 0  9995
2 44428  51.6407 188.2198 0002641 272.7214  87.3475 15.55120594 36675
